{
  "type": "FeatureCollection",
  "features": [
    {
      "type": "Feature",
      "properties": {
        "norad_id": 41890,
        "name": "CYGFM07",
        "group": "weather",
        "lat": -2.4652999498129624,
        "lon": -99.82425307241958,
        "alt_km": 413.2528054241893,
        "timestamp": "2025-12-04T07:39:35.817164+00:00",
        "meta_object_name": "CYGFM07",
        "meta_object_id": "2016-078G",
        "meta_epoch": "2025-12-03T16:57:09.459072",
        "meta_mean_motion": 15.49431579,
        "meta_eccentricity": 0.00089923,
        "meta_inclination": 34.9472,
        "meta_ra_of_asc_node": 80.6555,
        "meta_arg_of_pericenter": 132.3245,
        "meta_mean_anomaly": 227.824,
        "meta_ephemeris_type": 0,
        "meta_classification_type": "U",
        "meta_norad_cat_id": 41890,
        "meta_element_set_no": 999,
        "meta_rev_at_epoch": 49855,
        "meta_bstar": 0.00053085543,
        "meta_mean_motion_dot": 0.00030191,
        "meta_mean_motion_ddot": 0,
        "tle_line1": "1 41890U 16078G   25337.70635948  .00030191  00000+0  53086-3 0  9994",
        "tle_line2": "2 41890  34.9472  80.6555 0008992 132.3245 227.8240 15.49431579498554"
      },
      "geometry": {
        "type": "Point",
        "coordinates": [
          -99.82425307241958,
          -2.4652999498129624
        ]
      }
    },
    {
      "type": "Feature",
      "properties": {
        "norad_id": 41891,
        "name": "CYGFM03",
        "group": "weather",
        "lat": 12.225962993362096,
        "lon": 96.63266833594948,
        "alt_km": 417.02040349172694,
        "timestamp": "2025-12-04T07:39:35.817177+00:00",
        "meta_object_name": "CYGFM03",
        "meta_object_id": "2016-078H",
        "meta_epoch": "2025-12-03T17:38:56.094144",
        "meta_mean_motion": 15.49338017,
        "meta_eccentricity": 0.00083441,
        "meta_inclination": 34.9426,
        "meta_ra_of_asc_node": 82.3772,
        "meta_arg_of_pericenter": 119.6239,
        "meta_mean_anomaly": 240.5315,
        "meta_ephemeris_type": 0,
        "meta_classification_type": "U",
        "meta_norad_cat_id": 41891,
        "meta_element_set_no": 999,
        "meta_rev_at_epoch": 49853,
        "meta_bstar": 0.00054311714,
        "meta_mean_motion_dot": 0.00030783,
        "meta_mean_motion_ddot": 0,
        "tle_line1": "1 41891U 16078H   25337.73537146  .00030783  00000+0  54312-3 0  9999",
        "tle_line2": "2 41891  34.9426  82.3772 0008344 119.6239 240.5315 15.49338017498532"
      },
      "geometry": {
        "type": "Point",
        "coordinates": [
          96.63266833594948,
          12.225962993362096
        ]
      }
    },
    {
      "type": "Feature",
      "properties": {
        "norad_id": 43010,
        "name": "FENGYUN 3D",
        "group": "weather",
        "lat": -15.19798790549682,
        "lon": 122.03951205675435,
        "alt_km": 830.6779402003895,
        "timestamp": "2025-12-04T07:39:35.817187+00:00",
        "meta_object_name": "FENGYUN 3D",
        "meta_object_id": "2017-072A",
        "meta_epoch": "2025-12-03T22:17:08.265696",
        "meta_mean_motion": 14.19679779,
        "meta_eccentricity": 6.186e-05,
        "meta_inclination": 98.9881,
        "meta_ra_of_asc_node": 304.1074,
        "meta_arg_of_pericenter": 217.9718,
        "meta_mean_anomaly": 142.1414,
        "meta_ephemeris_type": 0,
        "meta_classification_type": "U",
        "meta_norad_cat_id": 43010,
        "meta_element_set_no": 999,
        "meta_rev_at_epoch": 41728,
        "meta_bstar": 0.00011890582,
        "meta_mean_motion_dot": 2.05e-06,
        "meta_mean_motion_ddot": 0,
        "tle_line1": "1 43010U 17072A   25337.92856789  .00000205  00000+0  11891-3 0  9998",
        "tle_line2": "2 43010  98.9881 304.1074 0000618 217.9718 142.1414 14.19679779417281"
      },
      "geometry": {
        "type": "Point",
        "coordinates": [
          122.03951205675435,
          -15.19798790549682
        ]
      }
    },
    {
      "type": "Feature",
      "properties": {
        "norad_id": 43013,
        "name": "NOAA 20 (JPSS-1)",
        "group": "weather",
        "lat": -7.484391122608463,
        "lon": -84.13098358352053,
        "alt_km": 831.2204015004672,
        "timestamp": "2025-12-04T07:39:35.817196+00:00",
        "meta_object_name": "NOAA 20 (JPSS-1)",
        "meta_object_id": "2017-073A",
        "meta_epoch": "2025-12-03T21:32:44.052576",
        "meta_mean_motion": 14.19522088,
        "meta_eccentricity": 0.00020632,
        "meta_inclination": 98.7586,
        "meta_ra_of_asc_node": 274.2918,
        "meta_arg_of_pericenter": 100.0352,
        "meta_mean_anomaly": 260.1057,
        "meta_ephemeris_type": 0,
        "meta_classification_type": "U",
        "meta_norad_cat_id": 43013,
        "meta_element_set_no": 999,
        "meta_rev_at_epoch": 41676,
        "meta_bstar": 0.00010393138,
        "meta_mean_motion_dot": 1.75e-06,
        "meta_mean_motion_ddot": 0,
        "tle_line1": "1 43013U 17073A   25337.89773209  .00000175  00000+0  10393-3 0  9995",
        "tle_line2": "2 43013  98.7586 274.2918 0002063 100.0352 260.1057 14.19522088416766"
      },
      "geometry": {
        "type": "Point",
        "coordinates": [
          -84.13098358352053,
          -7.484391122608463
        ]
      }
    },
    {
      "type": "Feature",
      "properties": {
        "norad_id": 43226,
        "name": "GOES 17",
        "group": "weather",
        "lat": 0.09095103349831571,
        "lon": 98.76680940503135,
        "alt_km": 35800.583266745896,
        "timestamp": "2025-12-04T07:39:35.817207+00:00",
        "meta_object_name": "GOES 17",
        "meta_object_id": "2018-022A",
        "meta_epoch": "2025-12-03T13:19:45.670080",
        "meta_mean_motion": 1.00271328,
        "meta_eccentricity": 0.00034226,
        "meta_inclination": 0.4342,
        "meta_ra_of_asc_node": 89.3189,
        "meta_arg_of_pericenter": 181.5531,
        "meta_mean_anomaly": 272.2117,
        "meta_ephemeris_type": 0,
        "meta_classification_type": "U",
        "meta_norad_cat_id": 43226,
        "meta_element_set_no": 999,
        "meta_rev_at_epoch": 2846,
        "meta_bstar": 0,
        "meta_mean_motion_dot": -1.65e-06,
        "meta_mean_motion_ddot": 0,
        "tle_line1": "1 43226U 18022A   25337.55538970 -.00000165  00000+0  00000+0 0  9993",
        "tle_line2": "2 43226   0.4342  89.3189 0003422 181.5531 272.2117  1.00271328 28461"
      },
      "geometry": {
        "type": "Point",
        "coordinates": [
          98.76680940503135,
          0.09095103349831571
        ]
      }
    },
    {
      "type": "Feature",
      "properties": {
        "norad_id": 43491,
        "name": "FENGYUN 2H",
        "group": "weather",
        "lat": -0.29750144500150566,
        "lon": -92.35667649451872,
        "alt_km": 35774.88263494039,
        "timestamp": "2025-12-04T07:39:35.817226+00:00",
        "meta_object_name": "FENGYUN 2H",
        "meta_object_id": "2018-050A",
        "meta_epoch": "2025-12-03T20:13:37.295328",
        "meta_mean_motion": 1.00271361,
        "meta_eccentricity": 0.00029221,
        "meta_inclination": 2.5261,
        "meta_ra_of_asc_node": 81.4292,
        "meta_arg_of_pericenter": 162.7976,
        "meta_mean_anomaly": 211.4639,
        "meta_ephemeris_type": 0,
        "meta_classification_type": "U",
        "meta_norad_cat_id": 43491,
        "meta_element_set_no": 999,
        "meta_rev_at_epoch": 2748,
        "meta_bstar": 0,
        "meta_mean_motion_dot": -1.14e-06,
        "meta_mean_motion_ddot": 0,
        "tle_line1": "1 43491U 18050A   25337.84279277 -.00000114  00000+0  00000+0 0  9996",
        "tle_line2": "2 43491   2.5261  81.4292 0002922 162.7976 211.4639  1.00271361 27486"
      },
      "geometry": {
        "type": "Point",
        "coordinates": [
          -92.35667649451872,
          -0.29750144500150566
        ]
      }
    },
    {
      "type": "Feature",
      "properties": {
        "norad_id": 43689,
        "name": "METOP-C",
        "group": "weather",
        "lat": 71.58520230266187,
        "lon": 8.856894235673032,
        "alt_km": 812.1774718459365,
        "timestamp": "2025-12-04T07:39:35.817236+00:00",
        "meta_object_name": "METOP-C",
        "meta_object_id": "2018-087A",
        "meta_epoch": "2025-12-03T22:52:05.099520",
        "meta_mean_motion": 14.21506812,
        "meta_eccentricity": 0.00016849,
        "meta_inclination": 98.6942,
        "meta_ra_of_asc_node": 35.8565,
        "meta_arg_of_pericenter": 56.6673,
        "meta_mean_anomaly": 303.4666,
        "meta_ephemeris_type": 0,
        "meta_classification_type": "U",
        "meta_norad_cat_id": 43689,
        "meta_element_set_no": 999,
        "meta_rev_at_epoch": 36709,
        "meta_bstar": 0.00015816239,
        "meta_mean_motion_dot": 3.02e-06,
        "meta_mean_motion_ddot": 0,
        "tle_line1": "1 43689U 18087A   25337.95283680  .00000302  00000+0  15816-3 0  9993",
        "tle_line2": "2 43689  98.6942  35.8565 0001684  56.6673 303.4666 14.21506812367097"
      },
      "geometry": {
        "type": "Point",
        "coordinates": [
          8.856894235673032,
          71.58520230266187
        ]
      }
    }
  ]
}